swift_code,bank_name,country,city,address
NKBMUXKYXXX,"Avery, Rodriguez and Strickland BANK",USA,REEDBURY,7397 ROBERTS WAYS APT. 977
DNLZAXMOXXX,"Dixon, Gonzalez and Alvarado BANK",DEU,MATTHEWBERG,037 ERICKSON MOUNTAINS
AMJBBNVRXXX,"Barnes, Smith and Stephenson BANK",CHN,NORTH LORI,4259 LOPEZ STATION
XKYRLFPXXXX,"Wolf, Brown and Horne BANK",RUS,LAKE SAMUELTOWN,440 CASTRO HILL
OTFMYJIUXXX,Rhodes PLC BANK,CHN,SPARKSCHESTER,8467 HUNTER FORGES
KSFTYUXNXXX,Luna-Huang BANK,RUS,JAMESVIEW,881 VICTOR CROSSING SUITE 748
EZQSBEEBXXX,Paul Inc BANK,USA,CROSSLAND,2445 KURT ORCHARD SUITE 294
IRHIONKSXXX,Anderson-Zimmerman BANK,CHE,MELISSAFORT,069 DONNA MEADOW APT. 778
LHIBEWAJXXX,"Mendoza, Rowe and Chandler BANK",ZAF,NICOLEVIEW,0929 DANA KNOLL
OFTFETPAXXX,Jones-York BANK,UZB,NEW RHONDA,490 DARRELL OVAL APT. 626
YJPABCFBXXX,Spears Group BANK,KAZ,EAST JANICE,72105 BRENDA ALLEY SUITE 790
DCXVZYYJXXX,Elliott LLC BANK,GBR,HENDRIXFORT,8706 HENRY CLIFF
WLIKXEQCXXX,"Duncan, Romero and Clark BANK",CHE,PORT KELLY,041 BASS HOLLOW
ZYRWHRPIXXX,Carroll Inc BANK,ZAF,NORTH APRIL,527 SOTO PLAIN SUITE 733
SUXKCWGXXXX,Andrews-Hudson BANK,CHN,SOUTH MICHAELHAVEN,901 TIMOTHY ISLE
YGKEZQUAXXX,"Duran, Walker and Gardner BANK",KAZ,PORT CHARLESFURT,34682 THOMAS FLAT
LMBTVBUMXXX,Holland Group BANK,CHN,THOMASTOWN,42478 JOSEPH VILLAGES
EIKXLGLNXXX,Olson Group BANK,GBR,NEW JOEL,7188 STEPHANIE BURG SUITE 506
CPZOFJPHXXX,Walton Group BANK,GBR,ZACHARYSIDE,69725 BROOKE TERRACE SUITE 733
QYNQSMBVXXX,Alvarado Ltd BANK,USA,AUSTINSIDE,7967 DANIEL COMMON
SNJAUYXJXXX,Martinez-Martinez BANK,KAZ,SOUTH JENNIFER,7076 STEPHANIE BROOKS APT. 970
EANGSOZFXXX,"Woodard, Wilson and Morris BANK",GBR,SUSANVIEW,2967 HERNANDEZ COMMON
FVDNBWPMXXX,Hahn Group BANK,KAZ,LAURAFORT,80903 ESPINOZA BURG
RFCNUPOUXXX,"Hobbs, Pacheco and Pierce BANK",DEU,SHERMANTOWN,539 SARAH RAMP APT. 857
FAWFGDSZXXX,Delgado and Sons BANK,USA,ANDREABOROUGH,25635 CRAWFORD GLEN
XRBLOKWFXXX,Thompson and Sons BANK,FRA,NEW IAN,375 IAN PLAZA
OKOMAKRKXXX,"Snyder, Ortiz and Ray BANK",KAZ,WILSONHAVEN,4524 DOMINIC PASS
LEJLNGLWXXX,Garner-Decker BANK,RUS,BRIANBOROUGH,9062 TAYLOR HEIGHTS
DCVOSJHKXXX,"Barker, Evans and Young BANK",RUS,LAKE CHRISTINAFORT,930 ELLIS TURNPIKE SUITE 976
MYQSKWHGXXX,Alvarez Ltd BANK,DEU,SOUTH KEITHSIDE,40670 JAMES COURTS SUITE 496
IULIJLFKXXX,"Cochran, Boyer and Carter BANK",RUS,LAKE RYANSIDE,39219 ROBBINS VILLAGE SUITE 545
ZZQESBPXXXX,"Logan, Reyes and Reed BANK",FRA,NORTH JEREMYLAND,2792 MENDOZA WALKS
MYQQJIKKXXX,Chapman PLC BANK,CHN,SOUTH JOSHUAFURT,715 MARCUS TURNPIKE
ZUFCFLPSXXX,Knight Inc BANK,USA,RAYVIEW,2227 BRIAN ISLAND
FXAQLVGZXXX,Sanchez LLC BANK,FRA,EAST JOHN,75957 CONRAD LODGE SUITE 986
PMTCUQSRXXX,Warren-Brown BANK,KAZ,LOPEZMOUTH,126 PALMER FREEWAY SUITE 347
BLPRBNQCXXX,Evans-Chambers BANK,ZAF,NORTH JENNIFERBURY,339 KAREN PARKS
ZMXPDMOUXXX,"Ramos, Diaz and Lloyd BANK",CHE,ANNASIDE,557 MARQUEZ RIVER SUITE 925
ZLEJCWFIXXX,Chase and Sons BANK,FRA,NEW EMILYTON,77319 JAMES CREEK
DQARTXWSXXX,Mckee PLC BANK,CHN,MALDONADOVIEW,54777 PETERSEN STREAM
LVWMALERXXX,Austin Inc BANK,ZAF,WALKERPORT,8098 TIFFANY GLEN APT. 857
MSUXKHUBXXX,"Howell, Wells and Adams BANK",GBR,PARKERSTAD,53530 MOODY FREEWAY
KXZYDIVTXXX,Perez-Bennett BANK,RUS,EAST JACQUELINE,036 JONES BROOK SUITE 972
LUPAUIFJXXX,"Howell, Navarro and Henry BANK",UZB,NORTH SAMANTHA,63877 HOOVER VIEWS
HQHRWOVDXXX,Sosa-Burns BANK,FRA,BRENTBURY,90694 CHAPMAN ORCHARD
FIXSJJJEXXX,Hopkins LLC BANK,USA,NEW JOSEPHVILLE,760 JOSE MANOR
KXPQFIJPXXX,Kelly PLC BANK,CHE,NORTH ROBERTBURY,0259 BIRD ORCHARD SUITE 407
QFPPSVWRXXX,"Montgomery, Collins and Fowler BANK",CHE,TYLERVILLE,423 NATASHA CAPE APT. 486
NNKFKOYWXXX,Cook Inc BANK,FRA,SOUTH CHRISTINE,980 VICKIE SHORE
SRRKWVLPXXX,Hughes Inc BANK,FRA,MICHAELCHESTER,618 STEVEN KNOLLS
HPUJXGCAXXX,Flynn-Winters BANK,ZAF,PORT CHEYENNE,966 DUNCAN FLAT
OTHSOZUTXXX,Wilson-Hale BANK,KAZ,NORTH JUSTINBERG,880 MONICA LOOP
COIYVIKJXXX,Gonzalez Ltd BANK,CHE,LAKE DAVIDVIEW,600 MILLER STREET
EANHTHFSXXX,Castillo and Sons BANK,KAZ,NORTH VANESSABURY,9989 CAMPBELL VISTA SUITE 208
FYSHIVOHXXX,"Acosta, Raymond and Nelson BANK",CHE,LAKE ROSS,50356 SCOTT EXTENSIONS APT. 831
BREEICDQXXX,Monroe-Henson BANK,KAZ,NEW MICHAELVIEW,137 SMITH KNOLLS
QUWIIKXGXXX,"Shah, Morales and Harris BANK",CHE,RACHELBURY,35246 JAMES LIGHTS
AGDXCYJNXXX,Brooks Inc BANK,USA,BRYANTSIDE,46877 ROBIN SHORES SUITE 731
HSRHAKUOXXX,"Miller, Coleman and Burns BANK",GBR,BURKEVILLE,7947 KING LAKE
YMNCLGLKXXX,"Parker, Johnson and May BANK",CHE,WEST DANNY,32179 MARK CANYON APT. 464
HQDHVVUCXXX,Coleman-Lewis BANK,FRA,HUYNHMOUTH,974 BRIAN HARBORS APT. 713
JTOPVUAOXXX,Stephens-James BANK,KAZ,COPELANDPORT,856 SMALL VILLAGE APT. 053
LSBFFASZXXX,Owens PLC BANK,GBR,MATAVILLE,554 JESSICA LAKE
XSIFVPNUXXX,"Spencer, Harvey and Gonzalez BANK",CHE,PORT JODY,82498 MCCOY COURSE
UTROEZGUXXX,Hoffman LLC BANK,ZAF,WEST ROBERTMOUTH,8150 WALKER MISSION SUITE 719
NBYVJZWRXXX,Morse-Baker BANK,FRA,KATHLEENFORT,948 CHURCH TERRACE SUITE 739
MDFOLPEXXXX,Mendoza and Sons BANK,DEU,JUSTINTOWN,696 OWENS KEYS APT. 110
KPUQBNTQXXX,"Carroll, Suarez and Haynes BANK",CHN,PORT CHRISTOPHER,23934 CHRISTINA STREET SUITE 785
UWFXBNDDXXX,Gonzalez-Bishop BANK,FRA,WONGVILLE,27451 ONEAL CROSSING
YBYZVPPIXXX,Smith LLC BANK,CHE,NORTH DERRICKCHESTER,2245 LESLIE MANOR
IUDRXYDEXXX,Gordon Inc BANK,ZAF,NORTH MARY,62850 WILLIAMS ISLANDS APT. 920
PLGJKMHPXXX,"George, Bolton and Jones BANK",ZAF,PARKERBURGH,389 ADAM FOREST
PQYKYKHWXXX,Williams Ltd BANK,CHN,JOSHUAPORT,6497 HAMILTON PRAIRIE APT. 989
QUNOZRBLXXX,Solomon and Sons BANK,RUS,BUTLERTOWN,01794 CARMEN SHORES SUITE 946
GYGDJVCGXXX,"Thomas, Hanson and Cooper BANK",UZB,SIMPSONCHESTER,3350 KATHERINE DRIVES
IQGJEAVNXXX,"White, Dixon and Simmons BANK",RUS,WILLIAMSFURT,94019 CAMPBELL SUMMIT SUITE 474
ELNUETAAXXX,Burke and Sons BANK,USA,BRIGHTSHIRE,7004 WENDY STRAVENUE
NFVLBDXTXXX,Padilla-Gibson BANK,ZAF,SOUTH LISASIDE,01988 SMITH HAVEN
VVMNKHZDXXX,"Greene, Watts and Stephens BANK",USA,MARCUSTON,05670 RUBIO LAND
AFZKPDXFXXX,Hampton-Kelly BANK,KAZ,LAKE RYAN,703 MOORE SQUARE APT. 101
UTDDQRUAXXX,Jackson and Sons BANK,GBR,ROBERTHAVEN,058 SCOTT RAPIDS APT. 829
JYYAVTZPXXX,Ayala Group BANK,CHE,NEW JASON,260 FLORES SQUARE
JJJYSZKWXXX,Erickson Group BANK,KAZ,WEST CHARLESLAND,063 TAYLOR FLATS APT. 759
TAAUFEECXXX,"Patterson, Miller and Fuentes BANK",ZAF,GARDNERBERG,7940 JOHN LIGHTS
WCDKFNVKXXX,Martin-Nelson BANK,KAZ,NEW JAMESTON,0362 FLOYD MOUNTAIN
PRSCKQDPXXX,Dickerson PLC BANK,ZAF,GREGORYFURT,26358 ANDERSON HILLS SUITE 859
CJTGHCHDXXX,Thomas-Jones BANK,RUS,NICOLESTAD,97607 BETHANY PLAINS APT. 018
IVDORWTRXXX,Schultz LLC BANK,DEU,SOUTH ADRIENNE,68400 TANYA FORGES APT. 052
AJUELIWKXXX,Greene-Gonzalez BANK,USA,SMITHTON,9422 ADRIAN PARKS
SDTVRDSUXXX,Myers Inc BANK,DEU,EAST MICHAELFORT,5472 ROSE PARKS
FYDHFEVOXXX,Austin-Schwartz BANK,GBR,WATSONPORT,3780 HERNANDEZ UNDERPASS
WGGUCELQXXX,"Hansen, Chase and Harmon BANK",FRA,ROCHAVIEW,1251 CHAPMAN COURT
SOISPSVTXXX,Jackson and Sons BANK,GBR,NORTH DAVIDMOUTH,57324 KEVIN GREEN SUITE 593
FGUEUQCNXXX,"Douglas, Smith and Huang BANK",CHE,DONNABURGH,522 AMY RAPIDS
PAKCVJIIXXX,Quinn-Pennington BANK,USA,EAST RODNEYVIEW,338 BRADLEY VISTA
JTYAZJIDXXX,Johnson-Franco BANK,DEU,WEST BARBARASIDE,62797 ALEXANDER CAMP SUITE 303
LKBZSPDJXXX,Richardson Inc BANK,USA,NORTH JEFF,625 CRUZ MOTORWAY APT. 185
CVEQAEWIXXX,Norris-Shah BANK,CHE,NORTH MARYHAVEN,305 MELANIE CAPE APT. 445
JSYTFKZHXXX,Williams LLC BANK,ZAF,SOUTH DENISE,7496 JOSE LOCKS
EDEMICWTXXX,Stephens-Miller BANK,CHE,LAKE DANNY,7613 ANTHONY RAPIDS
GEBTVUKRXXX,Burns-Moore BANK,UZB,CHRISTOPHERFORT,28232 LAUREN VILLAGES APT. 687
NFDZJUOJXXX,Joseph-Morgan BANK,GBR,NEW GARYVILLE,691 MARK ISLANDS
ATTUYCGTXXX,"Beltran, Glover and Stevenson BANK",DEU,PETERSSHIRE,9071 SULLIVAN CENTERS
HTQSNCCIXXX,Miller Inc BANK,ZAF,LEWISTOWN,08905 POPE AVENUE
KYJLQVQHXXX,"Bailey, Schmidt and Blanchard BANK",DEU,CROSSLAND,53684 ROBBINS FORT SUITE 664
OLSMYWQEXXX,Alvarado-Valdez BANK,CHE,LAKE PHILIP,6404 WILSON SUMMIT
YZWSDSFWXXX,"Smith, Bond and Bell BANK",RUS,LAKE MARIASIDE,718 CINDY CROSSING APT. 770
NTIIKUDRXXX,"Adkins, Hall and Lopez BANK",GBR,JUSTINCHESTER,5889 MARIA COURTS
PRPSHMCLXXX,"Harris, Wright and Miller BANK",FRA,LAKE THOMASBERG,74509 ASHLEY SHOAL SUITE 295
ORJDHMIDXXX,"Mendez, Booker and Rogers BANK",RUS,ROBINSTAD,381 DEBORAH CAUSEWAY SUITE 961
YXMHRGGNXXX,Bush-Tate BANK,FRA,SOUTH KIMBERLY,458 JENNIFER DIVIDE
KZXZPYTRXXX,Bradley-Blackwell BANK,CHE,NORTH JACOB,0191 STEVENS SQUARE SUITE 284
JZENSHFQXXX,"Jensen, Thomas and Wade BANK",UZB,SHAFFERFURT,8683 BRITTANY MOUNTAIN APT. 820
DLXROTTJXXX,Duke PLC BANK,USA,APRILLAND,61103 ANDERSON NECK SUITE 015
CUKPOKZZXXX,Mccormick-Frank BANK,KAZ,EAST ANDREW,930 DAVIS HILLS APT. 771
EMHJANTSXXX,"Guerrero, Gonzalez and Price BANK",KAZ,NORTH CRYSTALFORT,307 WILLIAMS UNION SUITE 190
ASISELRLXXX,Everett-Massey BANK,CHE,JULIECHESTER,66839 VERONICA LAKE
GABFBZMTXXX,Peters-Haynes BANK,DEU,THOMASBURGH,96239 EDWIN PINE
TWNRSKNLXXX,Bruce Inc BANK,GBR,JONATHANMOUTH,536 TURNER EXPRESSWAY
HCFPTIFEXXX,Lamb LLC BANK,RUS,BRADLEYTOWN,16944 KNIGHT TRACK
JWEENFDKXXX,Luna PLC BANK,FRA,EAST REBECCA,87849 STONE SQUARE
RPVOIUGPXXX,"Sullivan, Douglas and Fox BANK",CHE,NEW ASHLEY,71087 HOWARD ROW
KJNWKFWVXXX,Garcia and Sons BANK,CHN,EILEENFORT,9418 DYLAN ESTATE
FAITXFCYXXX,Morrow and Sons BANK,UZB,SIMMONSHAVEN,2100 JOSHUA ESTATE
RNVOLURTXXX,Brooks-Johnson BANK,CHN,WEST CHRISTOPHER,0968 TIMOTHY EXTENSION SUITE 438
ZASYKIURXXX,Owen-Garner BANK,CHN,NEW ROBERT,2577 FRANK COVE
VUKKOLOTXXX,Barnett Ltd BANK,USA,HORTONHAVEN,60245 JOSHUA TURNPIKE APT. 892
LAQIVNKBXXX,"Greene, Martinez and Parker BANK",FRA,PORT MITCHELL,82137 REED TRAIL SUITE 555
XYGNOKQXXXX,Gill-Johnson BANK,ZAF,JOHNSONFURT,89960 DYLAN MOUNTAIN SUITE 764
TGITUQOMXXX,"Barnes, Weber and Koch BANK",RUS,PORT LAURA,192 THOMAS MALL SUITE 700
FIZJCWTNXXX,Kane and Sons BANK,KAZ,GLOVERHAVEN,839 KRISTI CORNERS APT. 648
PHAEDBLXXXX,"Scott, Maxwell and May BANK",ZAF,SHELLEYBERG,07935 THOMAS STRAVENUE
OQVJELJXXXX,"Olson, Lewis and Mills BANK",DEU,JONESLAND,799 JOHNSON RADIAL
UUEQKSLQXXX,Gordon-Henderson BANK,GBR,WEST MARKFORT,4662 JONES FORGE SUITE 180
WLFNYAYMXXX,Murray-Moore BANK,GBR,NEW JAMES,3957 KYLE JUNCTIONS SUITE 067
SDDAKSKPXXX,Morton-Tucker BANK,CHN,JAMIEFURT,407 JASON CAMP
BBCIXZDYXXX,"Ortiz, Jackson and Rodriguez BANK",DEU,NEW LINDA,7147 MARK STRAVENUE
SUYZFZNSXXX,"Martinez, Best and Pena BANK",ZAF,ANDERSONMOUTH,99385 LAURIE CURVE APT. 762
TLEGFIMLXXX,Rios and Sons BANK,DEU,PHILIPBOROUGH,30645 SUE NECK SUITE 200
AXXIJLAHXXX,Sullivan-Hardin BANK,UZB,CHRISTOPHERMOUTH,153 CHAD DAM
QTUERAQAXXX,Cruz Inc BANK,DEU,LAKE ANDREWMOUTH,3297 FRANCO STREAM SUITE 037
DMKFTUBWXXX,Parsons-Suarez BANK,FRA,ALVAREZVILLE,9105 PERRY PASS APT. 629
NMQYUBZMXXX,Peterson LLC BANK,DEU,EAST JOSEPHSHIRE,38876 PERRY BRIDGE
QHSIBZFZXXX,Chang Ltd BANK,DEU,BARNESSTAD,7640 JEREMY FORGE APT. 803
QRDTFUUGXXX,Davis and Sons BANK,UZB,NEW ALAN,9592 CAROLYN RIDGES
CAYHUJOFXXX,Moore Group BANK,DEU,JEREMYTON,118 JONATHAN RAPIDS APT. 285
LJOMUYCAXXX,"Christensen, Stanton and Pena BANK",FRA,SERRANOBOROUGH,67304 HESS SKYWAY SUITE 793
SSCVEHZLXXX,"Kelly, Williams and Wells BANK",RUS,GRAYSHIRE,503 MICHAEL LANE
HNLGYRTVXXX,Johnson-Evans BANK,ZAF,BROWNVIEW,6562 HERNANDEZ GLEN SUITE 637
EVTCQCKPXXX,Roberts-Simmons BANK,USA,KEVINHAVEN,29978 BLACK STRAVENUE
RRKWWVCSXXX,"Padilla, Tran and Harris BANK",KAZ,SANTOSFORT,5666 SAMANTHA PASS
CKIIHOZAXXX,Smith and Sons BANK,CHN,RAMOSTON,6690 TYLER BROOKS
TACKSLAJXXX,"Robinson, Rice and Mooney BANK",USA,SOUTH NICOLEBERG,906 TIMOTHY VILLAGES
GIHHHIJWXXX,"Foley, Fleming and Brown BANK",USA,JOSHUABURGH,479 AMY SPRINGS APT. 498
LQLDIEQYXXX,Noble Inc BANK,UZB,EAST JENNA,62575 ALBERT ALLEY APT. 203
AQZHAMHVXXX,"Martin, Rich and Hurst BANK",RUS,EAST JOSEPHSHIRE,5537 OCHOA SQUARES
VQMUKGTFXXX,"Koch, Norton and Harris BANK",KAZ,NORMAVIEW,627 HARDIN STREAM
TGURYLTZXXX,Fitzgerald-Mcguire BANK,KAZ,LAKE VICTOR,37410 AMBER ROADS APT. 512
VYODWKZVXXX,"Suarez, Turner and Perry BANK",FRA,PORT AMY,4825 FOWLER STREET SUITE 955
HVYOOHJPXXX,Walker-Smith BANK,CHE,DONNAVILLE,97829 MILLER MOUNTAIN APT. 334
RWHKMHFPXXX,Ramirez-Wright BANK,ZAF,MATTHEWFURT,86753 NICOLE ROUTE
KTOINIDRXXX,Hoffman LLC BANK,UZB,NEW ANNA,6910 LAUREN CORNERS
LHIRVEKVXXX,"Harris, Salinas and Morrow BANK",RUS,LYNNSIDE,23276 BROWN BYPASS APT. 959
TMCCUWVRXXX,Fischer-Rivers BANK,KAZ,CRAWFORDBERG,723 MICHAEL FORGE
LJBLZVDMXXX,Stephenson Ltd BANK,USA,NEW IANBURGH,7106 JOSEPH FORKS
PHYRVDDOXXX,Jones LLC BANK,CHE,THOMASMOUTH,70643 RANDOLPH POINT
FNOQKBBJXXX,Swanson Inc BANK,KAZ,MISTYSHIRE,3185 JESSICA MOUNTAINS
QPHHORSNXXX,Ochoa-Barber BANK,ZAF,SMITHMOUTH,71087 BRANDON PARK
BJTFOTVDXXX,"Peterson, Nelson and Bailey BANK",GBR,NORTH GREGORY,44787 RASMUSSEN PLAINS SUITE 652
RPADLBDEXXX,"Anderson, Parker and Greene BANK",KAZ,SMITHBERG,7348 FLEMING VILLAGE APT. 623
RIDPIFHQXXX,"Ryan, Barrera and Shaw BANK",UZB,JENNIFERHAVEN,384 STEPHANIE GARDENS
QNZZYHTEXXX,Whitaker LLC BANK,GBR,NEW RANDYBURGH,07088 GRIMES PLAINS
NARERKGTXXX,Patel-Fields BANK,USA,MATABURY,714 HENSLEY MILL
YRKUYQMMXXX,Cooper Inc BANK,KAZ,EAST CYNTHIA,916 GREGORY VIEW
PANLHLNNXXX,Gonzalez-Marshall BANK,RUS,PORT MICHELLE,577 PETERSEN ROADS
YUQEWANJXXX,"Alvarez, Smith and King BANK",USA,LAKE BARBARA,430 TIMOTHY CIRCLES
DNEUKMJOXXX,"Morris, Campbell and Powell BANK",CHE,NEW FREDERICKSIDE,35947 SANCHEZ FORKS SUITE 683
DWRFESYAXXX,"Chan, Smith and Griffin BANK",CHE,LAKE TANYA,27788 MICHELLE PARKS
YZMHHCIPXXX,Le-Hayes BANK,KAZ,PORT STEVENCHESTER,079 LISA SPRINGS APT. 970
IHFVGCZZXXX,Miller-Mcgee BANK,CHN,COOKMOUTH,629 WHITE SHOAL
ZBSFKHUVXXX,"Castillo, George and Davis BANK",FRA,PORT MIKAYLATON,47282 JAMES RAPID
VDTSKQJTXXX,Nicholson PLC BANK,DEU,NEW WENDYHAVEN,135 MARIA TRAIL SUITE 257
LNMDDHQUXXX,Powell-Bright BANK,FRA,EAST LAUREN,76930 CRUZ KNOLLS
GWMEIXMTXXX,Wallace Inc BANK,RUS,LAWRENCESIDE,54250 MORALES EXTENSION
ECCSZSHNXXX,Bailey-Owens BANK,CHN,BARRYMOUTH,353 BECK MISSION
BMXXRWOCXXX,Edwards-Bell BANK,GBR,SOUTH CHRISTIEFORT,7127 CHRISTOPHER ESTATE
EJPDXYJCXXX,Schultz-Benitez BANK,UZB,WALTERMOUTH,29473 TREVINO EXTENSION
ZMOGUCMKXXX,Allen Ltd BANK,GBR,BROWNBURY,03821 BROWN PARK SUITE 661
MLBQRKUYXXX,Richards-Hawkins BANK,USA,PATTERSONLAND,53714 ZACHARY EXTENSIONS SUITE 308
OBNVXRVFXXX,Wolfe Inc BANK,UZB,FRANKLINBURGH,038 NATHAN COURT APT. 460
TSXIIKKEXXX,Ward Ltd BANK,UZB,LINDASTAD,62843 ELIZABETH MOUNT APT. 953
PKJMMVUDXXX,Woods-Nichols BANK,RUS,JENNALAND,534 GEORGE LANE APT. 576
VXBXWAEDXXX,"Ramirez, Holt and Merritt BANK",KAZ,SCOTTPORT,501 HUBBARD FREEWAY APT. 977
MQWZLJVMXXX,Cannon-Smith BANK,CHE,EAST ROBERTSHIRE,20666 BRITTANY TURNPIKE
WVXXIVFUXXX,Clark Group BANK,UZB,WILLIAMSBURGH,795 RANDY KEY APT. 266
BCIXKNFNXXX,Owen-Knight BANK,CHE,FOSTERBERG,342 INGRAM PRAIRIE
XHGOJEWAXXX,"Shepherd, Melton and Baker BANK",GBR,EAST SCOTT,68982 MILLER KNOLLS
GORRZZUHXXX,Baker Group BANK,GBR,MICHAELPORT,855 ANDREA SHORE
DYCPUYNKXXX,Johnston-Avila BANK,KAZ,HUBBARDSHIRE,6306 WARREN VISTA APT. 971
VFVHZQETXXX,Guerrero-Robinson BANK,UZB,ALEXALAND,5539 CHRISTINA CLIFFS
